OBJECT_NAME,OBJECT_ID,EPOCH,MEAN_MOTION,ECCENTRICITY,INCLINATION,RA_OF_ASC_NODE,ARG_OF_PERICENTER,MEAN_ANOMALY,EPHEMERIS_TYPE,CLASSIFICATION_TYPE,NORAD_CAT_ID,ELEMENT_SET_NO,REV_AT_EPOCH,BSTAR,MEAN_MOTION_DOT,MEAN_MOTION_DDOT
CENTISPACE-1 S3,2022-108A,2026-06-17T19:45:28.774080,14.61253530,.0009411,53.5338,52.6287,356.9788,3.1128,0,U,53757,999,20162,.11189E-3,.367E-5,0
CENTISPACE-1 S4,2022-108B,2026-06-17T19:22:25.535136,14.61934883,.0008601,53.5313,50.2099,345.1126,14.9595,0,U,53758,999,20165,.1411E-3,.522E-5,0
BLUEWALKER-3,2022-111AL,2026-06-16T22:04:37.568928,15.38268292,.00063703,53.2296,35.2268,159.9771,200.1486,0,U,53807,999,21016,.15345331E-3,.5483E-4,0
YUNHAI-1 03,2022-115A,2026-06-17T19:35:01.516128,14.32718482,.0005766,98.5532,166.9551,54.0907,306.0812,0,U,53877,999,19560,.11717E-3,.275E-5,0
CENTISPACE-1 S5,2022-126A,2026-06-17T15:07:33.504960,14.63014674,.0014605,54.9976,211.1874,73.2394,287.0201,0,U,54020,999,19710,.10845E-3,.371E-5,0
CENTISPACE-1 S6,2022-126B,2026-06-17T14:58:02.591904,14.62290949,.0016454,54.9980,213.0811,73.3623,286.9176,0,U,54021,999,19706,.7204E-4,.177E-5,0
OTB-3-GAZELLE,2022-127A,2026-06-17T13:05:12.428736,14.42674564,.0013005,98.3944,160.2442,182.0234,178.0906,0,U,54023,999,19441,.44833E-4,.106E-5,0
ASO-S,2022-129A,2026-06-17T19:19:18.829920,14.52061996,.0015774,98.2747,173.8767,90.9867,269.3135,0,U,54029,999,19551,.49129E-4,.154E-5,0
HJ-2E,2022-132A,2026-06-17T21:02:13.197696,15.22324516,.0020421,97.3794,173.2404,12.8210,347.3541,0,U,54035,999,20452,.2918E-3,.6695E-4,0
COSMOS 2561,2022-137A,2026-06-17T20:54:51.166656,15.51717051,.0010558,96.9173,227.8469,33.9399,326.2528,0,U,54109,999,20645,.18702E-3,.11074E-3,0
GONETS-M 23,2022-139A,2026-06-17T19:49:47.716608,12.42890860,.002093,82.5073,347.8971,218.2302,141.7295,0,U,54150,999,16572,.12991E-4,.12E-6,0
GONETS-M 24,2022-139B,2026-06-17T21:06:57.744000,12.42891460,.0016021,82.4989,346.9231,228.4108,131.5600,0,U,54151,999,16573,.44644E-4,.16E-6,0
GONETS-M 25,2022-139C,2026-06-17T20:47:21.605856,12.42889987,.0019957,82.5055,347.6183,227.2436,132.6965,0,U,54152,999,16573,-.55972E-4,.2E-7,0
SKIF-D,2022-139D,2026-06-17T06:09:45.849888,5.00427614,.0007382,89.9509,96.6677,199.2308,160.7915,0,U,54153,999,6411,0,.12E-6,0
MATS,2022-147A,2026-06-17T13:56:13.634304,15.05355379,.0012107,97.6817,170.1759,189.8778,170.2213,0,U,54227,999,19782,.13662E-3,.1897E-4,0
JILIN-1 GAOFEN 03D54,2022-155D,2026-06-17T02:05:46.563936,15.98577285,.00058926,97.6131,321.1856,262.8455,97.2152,0,U,54254,999,20028,.75735162E-3,.354208E-2,.54092919E-4
EOS-6 (OCEANSAT-3),2022-158A,2026-06-17T20:30:03.009600,14.47000812,.0001187,98.3541,267.0395,48.8984,311.2311,0,U,54361,999,18793,.71025E-4,.215E-5,0
DONGPO 09,2022-167D,2026-06-17T20:46:55.183872,15.36348234,.0003564,97.6900,339.9024,115.1411,245.0202,0,U,54685,999,19555,.28619E-3,.10061E-3,0
DONGPO 08,2022-167E,2026-06-17T20:20:31.211808,15.33657653,.0008707,97.6865,337.0581,158.3871,201.7740,0,U,54686,999,19542,.2831E-3,.914E-4,0
2022-167F,2022-167F,2026-06-17T20:06:41.625792,15.92989433,.0001904,97.6104,356.8375,234.0739,126.0358,0,U,54687,999,19693,.64702E-3,.223498E-2,.21038E-4
DONGPO 10,2022-167H,2026-06-17T20:29:35.169792,15.34466303,.0006289,97.6945,339.0179,108.3229,251.8698,0,U,54689,999,19546,.28634E-3,.9481E-4,0
JILIN-1 GAOFEN 03D48,2022-167P,2026-06-17T20:25:48.488160,15.35233716,.000763,97.6880,338.3933,112.9844,247.2204,0,U,54695,999,19549,.29176E-3,.9905E-4,0
STAR VIBE,2023-001A,2026-06-17T19:39:22.999680,15.42631456,.0007142,97.3167,233.2854,110.8063,249.3950,0,U,55009,999,19232,.27948E-3,.12094E-3,0
BRO-8,2023-001C,2026-06-17T19:45:33.259104,15.49094756,.0006804,97.3212,234.0162,122.4909,237.7001,0,U,55011,999,19230,.53947E-3,.29286E-3,0
CONNECTA T1.2,2023-001D,2026-06-17T18:02:20.224608,15.50757976,.000657,97.3267,239.4524,101.5322,258.6668,0,U,55012,999,19263,.59098E-3,.34045E-3,0
BIRKELAND,2023-001G,2026-06-17T20:40:08.326272,15.40086328,.0008361,97.3343,236.8327,103.3006,256.9173,0,U,55015,999,19245,.18347E-3,.7264E-4,0
ION SCV-008,2023-001AU,2026-06-17T19:51:01.187712,15.28582531,.0014947,97.5713,265.1555,16.4016,343.7704,0,U,55051,999,19143,.18792E-3,.5162E-4,0
ION SCV-007,2023-001BD,2026-06-17T17:45:11.430432,14.77553885,.001176,97.9007,231.7437,340.3707,19.7049,0,U,55060,999,18633,.53651E-4,.332E-5,0
HUYGENS,2023-001CN,2026-06-17T20:40:15.750624,15.40086741,.0011057,97.3248,236.0618,84.2823,275.9684,0,U,55093,999,19247,.18778E-3,.7444E-4,0
SHARJAHSAT-1,2023-001CZ,2026-06-17T19:45:41.548320,15.49083955,.0007032,97.3170,237.5980,101.4449,258.7592,0,U,55104,999,19259,.31752E-3,.17167E-3,0
