CENTISPACE-1 S3         
1 53757U 22108A   26168.82324970  .00000367  00000+0  11189-3 0  9996
2 53757  53.5338  52.6287 0009411 356.9788   3.1128 14.61253530201623
CENTISPACE-1 S4         
1 53758U 22108B   26168.80723999  .00000522  00000+0  14110-3 0  9999
2 53758  53.5313  50.2099 0008601 345.1126  14.9595 14.61934883201656
BLUEWALKER-3            
1 53807U 22111AL  26167.91987927  .00005483  00000+0  15345-3 0  9994
2 53807  53.2296  35.2268 0006370 159.9771 200.1486 15.38268292210160
YUNHAI-1 03             
1 53877U 22115A   26168.81598977  .00000275  00000+0  11717-3 0  9991
2 53877  98.5532 166.9551 0005766  54.0907 306.0812 14.32718482195607
CENTISPACE-1 S5         
1 54020U 22126A   26168.63024890  .00000371  00000+0  10845-3 0  9990
2 54020  54.9976 211.1874 0014605  73.2394 287.0201 14.63014674197105
CENTISPACE-1 S6         
1 54021U 22126B   26168.62364111  .00000177  00000+0  72040-4 0  9993
2 54021  54.9980 213.0811 0016454  73.3623 286.9176 14.62290949197067
OTB-3-GAZELLE           
1 54023U 22127A   26168.54528274  .00000106  00000+0  44833-4 0  9990
2 54023  98.3944 160.2442 0013005 182.0234 178.0906 14.42674564194414
ASO-S                   
1 54029U 22129A   26168.80507905  .00000154  00000+0  49129-4 0  9991
2 54029  98.2747 173.8767 0015774  90.9867 269.3135 14.52061996195514
HJ-2E                   
1 54035U 22132A   26168.87654164  .00006695  00000+0  29180-3 0  9999
2 54035  97.3794 173.2404 0020421  12.8210 347.3541 15.22324516204523
COSMOS 2561             
1 54109U 22137A   26168.87142554  .00011074  00000+0  18702-3 0  9996
2 54109  96.9173 227.8469 0010558  33.9399 326.2528 15.51717051206457
GONETS-M 23             
1 54150U 22139A   26168.82624672  .00000012  00000+0  12991-4 0  9990
2 54150  82.5073 347.8971 0020930 218.2302 141.7295 12.42890860165723
GONETS-M 24             
1 54151U 22139B   26168.87983500  .00000016  00000+0  44644-4 0  9998
2 54151  82.4989 346.9231 0016021 228.4108 131.5600 12.42891460165736
GONETS-M 25             
1 54152U 22139C   26168.86622229  .00000002  00000+0 -55972-4 0  9998
2 54152  82.5055 347.6183 0019957 227.2436 132.6965 12.42889987165735
SKIF-D                  
1 54153U 22139D   26168.25678067  .00000012  00000+0  00000+0 0  9990
2 54153  89.9509  96.6677 0007382 199.2308 160.7915  5.00427614 64113
MATS                    
1 54227U 22147A   26168.58071336  .00001897  00000+0  13662-3 0  9997
2 54227  97.6817 170.1759 0012107 189.8778 170.2213 15.05355379197825
JILIN-1 GAOFEN 03D54    
1 54254U 22155D   26168.08734449  .00354208  54093-4  75735-3 0  9994
2 54254  97.6131 321.1856 0005892 262.8455  97.2152 15.98577285200286
EOS-6 (OCEANSAT-3)      
1 54361U 22158A   26168.85420150  .00000215  00000+0  71025-4 0  9991
2 54361  98.3541 267.0395 0001187  48.8984 311.2311 14.47000812187938
DONGPO 09               
1 54685U 22167D   26168.86591648  .00010061  00000+0  28619-3 0  9992
2 54685  97.6900 339.9024 0003564 115.1411 245.0202 15.36348234195552
DONGPO 08               
1 54686U 22167E   26168.84758347  .00009140  00000+0  28310-3 0  9996
2 54686  97.6865 337.0581 0008707 158.3871 201.7740 15.33657653195420
2022-167F               
1 54687U 22167F   26168.83798178  .00223498  21038-4  64702-3 0  9990
2 54687  97.6104 356.8375 0001904 234.0739 126.0358 15.92989433196934
DONGPO 10               
1 54689U 22167H   26168.85387928  .00009481  00000+0  28634-3 0  9990
2 54689  97.6945 339.0179 0006289 108.3229 251.8698 15.34466303195465
JILIN-1 GAOFEN 03D48    
1 54695U 22167P   26168.85125565  .00009905  00000+0  29176-3 0  9997
2 54695  97.6880 338.3933 0007630 112.9844 247.2204 15.35233716195491
STAR VIBE               
1 55009U 23001A   26168.81901620  .00012094  00000+0  27948-3 0  9993
2 55009  97.3167 233.2854 0007142 110.8063 249.3950 15.42631456192320
BRO-8                   
1 55011U 23001C   26168.82330161  .00029286  00000+0  53947-3 0  9992
2 55011  97.3212 234.0162 0006804 122.4909 237.7001 15.49094756192306
CONNECTA T1.2           
1 55012U 23001D   26168.75162297  .00034045  00000+0  59098-3 0  9990
2 55012  97.3267 239.4524 0006570 101.5322 258.6668 15.50757976192634
BIRKELAND               
1 55015U 23001G   26168.86120748  .00007264  00000+0  18347-3 0  9995
2 55015  97.3343 236.8327 0008361 103.3006 256.9173 15.40086328192450
ION SCV-008             
1 55051U 23001AU  26168.82709708  .00005162  00000+0  18792-3 0  9999
2 55051  97.5713 265.1555 0014947  16.4016 343.7704 15.28582531191438
ION SCV-007             
1 55060U 23001BD  26168.73971563  .00000332  00000+0  53651-4 0  9997
2 55060  97.9007 231.7437 0011760 340.3707  19.7049 14.77553885186330
HUYGENS                 
1 55093U 23001CN  26168.86129341  .00007444  00000+0  18778-3 0  9997
2 55093  97.3248 236.0618 0011057  84.2823 275.9684 15.40086741192474
SHARJAHSAT-1            
1 55104U 23001CZ  26168.82339755  .00017167  00000+0  31752-3 0  9998
2 55104  97.3170 237.5980 0007032 101.4449 258.7592 15.49083955192596
